STARLETTE               
1 07646U 75010A   18232.22881505 -.00000129  00000-0  10735-4 0  9996
2 07646  49.8225 224.9642 0205740 342.0413  17.3287 13.82305053199196
LAGEOS 1                
1 08820U 76039A   18231.34222983  .00000004  00000-0  00000-0 0  9995
2 08820 109.8464 280.0616 0044675 194.3149 156.6596  6.38664883730877
AJISAI (EGS)            
1 16908U 86061A   18231.59052833 -.00000087  00000-0  76972-4 0  9996
2 16908  50.0095 297.2718 0011458 104.7698  44.1342 12.44488248124577
LAGEOS 2                
1 22195U 92070B   18231.76441361 -.00000009  00000-0  00000+0 0  9993
2 22195  52.6500 273.1816 0138071  17.8853 119.9774  6.47294156610570
STELLA                  
1 22824U 93061B   18231.59310560 -.00000045  00000-0  40156-6 0  9993
2 22824  98.8782 198.5926 0005453 238.4352 254.9011 14.27373877296969
LARES                   
1 38077U 12006A   18232.16710600 -.00000003  00000-0  22114-3 0  9998
2 38077  69.4923 133.9958 0011156 228.5424 131.4640 12.54931324298595
